     2.100          NAVIGATION                              RINEX VERSION / TYPE
fic2rin                                 09/30/2015 00:16:36 PGM / RUN BY / DATE
                                                            END OF HEADER
13 15  9 29  4  0  0.0 -.152784865350D-03 -.295585778076D-11  .000000000000D+00
     .630000000000D+02  .109468750000D+03  .460412035152D-08  .191842406110D+01
     .558793544769D-05  .469165830873D-02  .532902777195D-05  .515368284988D+04
     .187200000000D+06  .121071934700D-06 -.198231458270D+01  .558793544769D-07
     .972966645269D+00  .284218750000D+03  .207285458262D+01 -.823462871962D-08
     .539665336370D-09  .100000000000D+01  .186400000000D+04  .000000000000D+00
     .240000000000D+01  .000000000000D+00 -.111758708954D-07  .630000000000D+02
     .180006000000D+06  .400000000000D+01
14 15  9 29  4  0  0.0  .315057113767D-04 -.261479726760D-11  .000000000000D+00
     .470000000000D+02  .118468750000D+03  .475698386176D-08 -.243751033812D+01
     .613182783127D-05  .846923456993D-02  .601634383202D-05  .515366149330D+04
     .187200000000D+06  .175088644028D-06 -.201777928938D+01 -.931322574615D-08
     .965486259441D+00  .263812500000D+03 -.195557210374D+01 -.829784563858D-08
     .686100007391D-09  .100000000000D+01  .186400000000D+04  .000000000000D+00
     .240000000000D+01  .000000000000D+00 -.931322574615D-08  .470000000000D+02
     .180006000000D+06  .400000000000D+01
15 15  9 29  4  0  0.0 -.274107791483D-03 -.204636307899D-11  .000000000000D+00
     .440000000000D+02  .136968750000D+03  .536379485216D-08 -.312533554487D+01
     .705383718014D-05  .747283385135D-02  .708922743797D-05  .515372688866D+04
     .187200000000D+06 -.745058059692D-08 -.214608098950D+01 -.651925802231D-07
     .932326431390D+00  .231187500000D+03  .407891421584D+00 -.853428405862D-08
     .648241287566D-09  .100000000000D+01  .186400000000D+04  .000000000000D+00
     .240000000000D+01  .000000000000D+00 -.107102096081D-07  .440000000000D+02
     .180006000000D+06  .400000000000D+01
16 15  9 29  4  0  0.0 -.817226245999D-04  .386535248253D-11  .000000000000D+00
     .670000000000D+02 -.558125000000D+02  .346264423303D-08 -.142342692317D+01
    -.289268791676D-05  .810866372194D-02  .144168734550D-04  .515363695908D+04
     .187200000000D+06  .521540641785D-07  .677490850613D-01 -.162050127983D-06
     .990990202697D+00  .118468750000D+03  .319963363873D+00 -.745245328174D-08
    -.105361531588D-09  .100000000000D+01  .186400000000D+04  .000000000000D+00
     .240000000000D+01  .000000000000D+00 -.102445483208D-07  .670000000000D+02
     .180006000000D+06  .400000000000D+01
17 15  9 29  4  0  0.0 -.189306680113D-03 -.136424205266D-11  .000000000000D+00
     .590000000000D+02  .824062500000D+02  .435053836024D-08 -.240725508418D+01
     .432692468166D-05  .104106783401D-01  .732578337193D-05  .515356942368D+04
     .187200000000D+06  .521540641785D-07  .109216545175D+01 -.745058059692D-07
     .973517707492D+00  .246937500000D+03 -.200662274110D+01 -.788747140199D-08
     .601453624386D-09  .100000000000D+01  .186400000000D+04  .000000000000D+00
     .240000000000D+01  .000000000000D+00 -.107102096081D-07  .590000000000D+02
     .180006000000D+06  .400000000000D+01
18 15  9 29  4  0  0.0  .438125338405D-03  .341060513165D-11  .000000000000D+00
     .590000000000D+02 -.762500000000D+01  .510235539073D-08 -.857542070881D+00
    -.204890966415D-06  .163585776463D-01  .142976641655D-04  .515364429283D+04
     .187200000000D+06 -.856816768646D-07  .311768103522D+01  .286847352982D-06
     .925554824982D+00  .892812500000D+02 -.193624959940D+01 -.850749722855D-08
    -.237509893240D-09  .100000000000D+01  .186400000000D+04  .000000000000D+00
     .240000000000D+01  .000000000000D+00 -.111758708954D-07  .590000000000D+02
     .180006000000D+06  .400000000000D+01
19 15  9 29  4  0  0.0 -.520799774677D-03 -.568434188608D-12  .000000000000D+00
     .710000000000D+02  .757187500000D+02  .446447167745D-08  .244507666600D+01
     .375509262085D-05  .113616321469D-01  .721029937267D-05  .515513988876D+04
     .187200000000D+06 -.134110450745D-06  .114142579045D+01 -.201165676117D-06
     .970550614117D+00  .246625000000D+03  .652439374753D+00 -.803890628129D-08
     .556451749877D-09  .100000000000D+01  .186400000000D+04  .000000000000D+00
     .240000000000D+01  .000000000000D+00 -.149011611938D-07  .710000000000D+02
     .180006000000D+06  .400000000000D+01
21 15  9 29  4  0  0.0 -.483111012727D-03 -.272848410532D-11  .000000000000D+00
     .220000000000D+02 -.487187500000D+02  .567559355411D-08  .104949621584D+00
    -.244565308094D-05  .225927920546D-01  .441633164883D-05  .515374026489D+04
     .187200000000D+06 -.411644577980D-06  .207500217123D+01  .253319740295D-06
     .934469461547D+00  .284468750000D+03 -.187518179580D+01 -.918288250392D-08
    -.374301305437D-09  .100000000000D+01  .186400000000D+04  .000000000000D+00
     .240000000000D+01  .000000000000D+00 -.116415321827D-07  .220000000000D+02
     .180006000000D+06  .400000000000D+01
22 15  9 29  4  0  0.0  .395925249904D-03  .363797880709D-11  .000000000000D+00
     .790000000000D+02 -.152812500000D+02  .506699677504D-08 -.134149723189D+01
    -.681728124619D-06  .800643314142D-02  .142809003592D-04  .515368902779D+04
     .187200000000D+06  .158324837685D-06  .311862158475D+01  .122934579849D-06
     .923383436158D+00  .808750000000D+02 -.204306220181D+01 -.826927301984D-08
    -.253939149013D-09  .100000000000D+01  .186400000000D+04  .000000000000D+00
     .340000000000D+01  .000000000000D+00 -.176951289177D-07  .790000000000D+02
     .180006000000D+06  .400000000000D+01
23 15  9 29  4  0  0.0 -.135920941830D-03 -.216004991671D-11  .000000000000D+00
     .103000000000D+03  .115218750000D+03  .506199656676D-08  .271047121935D+01
     .599026679993D-05  .104058332508D-01  .709481537342D-05  .515379598999D+04
     .187200000000D+06 -.137835741043D-06 -.209194548362D+01 -.167638063431D-06
     .947447708566D+00  .237875000000D+03 -.262790079628D+01 -.831534636755D-08
     .600024993449D-09  .100000000000D+01  .186400000000D+04  .000000000000D+00
     .240000000000D+01  .000000000000D+00 -.200234353542D-07  .103000000000D+03
     .180006000000D+06  .400000000000D+01
24 15  9 29  4  0  0.0 -.549154356122D-05 -.682121026330D-12  .000000000000D+00
     .480000000000D+02 -.723125000000D+02  .537736684606D-08  .202491634443D+01
    -.368617475033D-05  .345642748289D-02  .264681875706D-05  .515365089417D+04
     .187200000000D+06 -.143423676491D-06 -.106474338590D+01  .145286321640D-06
     .951873979338D+00  .322687500000D+03  .300845562740D+00 -.880858119848D-08
    -.346443002170D-09  .100000000000D+01  .186400000000D+04  .000000000000D+00
     .240000000000D+01  .000000000000D+00  .232830643654D-08  .480000000000D+02
     .180006000000D+06  .400000000000D+01
25 15  9 29  4  0  0.0 -.452161766589D-04 -.522959453519D-11  .000000000000D+00
     .430000000000D+02 -.628437500000D+02  .387266131189D-08 -.556233169801D-01
    -.328384339809D-05  .463903031778D-02  .143665820360D-04  .515363153267D+04
     .187200000000D+06  .409781932831D-07  .101429523232D-02  .372529029846D-07
     .978862409937D+00  .109031250000D+03  .740797742502D+00 -.779532470656D-08
    -.282154610015D-09  .100000000000D+01  .186400000000D+04  .000000000000D+00
     .240000000000D+01  .000000000000D+00  .512227416039D-08  .430000000000D+02
     .180006000000D+06  .400000000000D+01
26 15  9 29  4  0  0.0 -.671739690006D-04 -.120508047985D-10  .000000000000D+00
     .840000000000D+02 -.791562500000D+02  .411874299075D-08 -.933105275809D+00
    -.410526990891D-05  .170559389517D-03  .142734497786D-04  .515365126991D+04
     .187200000000D+06  .204890966415D-07 -.373808631201D-02 -.465661287308D-07
     .960927423421D+00  .107437500000D+03  .314341094665D+00 -.784818405122D-08
    -.289297764699D-09  .100000000000D+01  .186400000000D+04  .000000000000D+00
     .340000000000D+01  .000000000000D+00  .745058059692D-08  .840000000000D+02
     .180006000000D+06  .400000000000D+01
27 15  9 29  4  0  0.0  .234083272517D-04  .295585778076D-11  .000000000000D+00
     .320000000000D+02  .727500000000D+02  .445839999597D-08 -.245882179369D+01
     .385940074921D-05  .267280940898D-02  .824965536594D-05  .515369776344D+04
     .187200000000D+06  .372529029846D-08  .104364512431D+01 -.335276126862D-07
     .968470897592D+00  .224593750000D+03  .321100425727D+00 -.808783689087D-08
     .628954769919D-09  .100000000000D+01  .186400000000D+04  .000000000000D+00
     .240000000000D+01  .000000000000D+00  .139698386192D-08  .320000000000D+02
     .180006000000D+06  .400000000000D+01
28 15  9 29  4  0  0.0  .470824074000D-03  .261479726760D-11  .000000000000D+00
     .120000000000D+03 -.361562500000D+02  .355050503564D-08 -.159502097452D+01
    -.185891985893D-05  .197166015860D-01  .136978924274D-04  .515370465660D+04
     .187200000000D+06  .156462192535D-06  .729738560197D-01  .512227416039D-06
     .989634292686D+00  .130375000000D+03 -.165730179323D+01 -.748245453141D-08
    -.234295473633D-09  .100000000000D+01  .186400000000D+04  .000000000000D+00
     .340000000000D+01  .000000000000D+00 -.111758708954D-07  .120000000000D+03
     .180006000000D+06  .400000000000D+01
29 15  9 29  4  0  0.0  .636855605990D-03  .216004991671D-11  .000000000000D+00
     .990000000000D+02  .810625000000D+02  .448840124564D-08  .453448004272D-01
     .412762165070D-05  .872349715792D-03  .769272446632D-05  .515368407822D+04
     .187200000000D+06  .745058059692D-07  .110164869824D+01 -.558793544769D-08
     .974395721664D+00  .239875000000D+03 -.457525610464D+00 -.816855453880D-08
     .585381526347D-09  .100000000000D+01  .186400000000D+04  .000000000000D+00
     .240000000000D+01  .000000000000D+00 -.102445483208D-07  .990000000000D+02
     .180006000000D+06  .400000000000D+01
